NORAD_CAT_ID,OBJECT_NAME,OBJECT_TYPE,EPOCH,MEAN_MOTION,ECCENTRICITY,INCLINATION,RA_OF_ASC_NODE,ARG_OF_PERICENTER,MEAN_ANOMALY,BSTAR,MEAN_MOTION_DOT,MEAN_MOTION_DDOT,TLE_LINE0,TLE_LINE1,TLE_LINE2,SEMIMAJOR_AXIS,PERIOD,APOGEE,PERIGEE,DECAYED
53609.0,STARLINK-4660,PAYLOAD,2023-08-17 01:51:20,15.08820295,0.0001357,53.2164,118.9481,98.6431,261.4715,0.00033157,4.99e-05,0.0,0 STARLINK-4660,1 53609U 22104X   23229.07732302  .00004990  00000-0  33157-3 0  9998,2 53609  53.2164 118.9481 0001357  98.6431 261.4715 15.08820295 53751,6917.941,95.439,540.744,538.867,0.0
53609.0,STARLINK-4660,PAYLOAD,2023-08-18 01:42:06,15.08850514,0.000129,53.2166,114.4863,81.9799,278.1339,5.3379e-05,5.62e-06,0.0,0 STARLINK-4660,1 53609U 22104X   23230.07091152  .00000562  00000-0  53379-4 0  9991,2 53609  53.2166 114.4863 0001290  81.9799 278.1339 15.08850514 53907,6917.848,95.437,540.606,538.821,0.0
53609.0,STARLINK-4660,PAYLOAD,2023-08-18 19:11:22,15.08834877,0.0001338,53.2165,111.2163,86.9384,273.1762,3.6937e-05,3e-06,0.0,0 STARLINK-4660,1 53609U 22104X   23230.79956202  .00000300  00000-0  36937-4 0  9997,2 53609  53.2165 111.2163 0001338  86.9384 273.1762 15.08834877 54014,6917.896,95.438,540.687,538.835,0.0
53609.0,STARLINK-4660,PAYLOAD,2023-08-19 01:32:54,15.0884272,0.000137,53.2168,110.0265,89.4324,270.6825,0.00010818,1.434e-05,0.0,0 STARLINK-4660,1 53609U 22104X   23231.06451578  .00001434  00000-0  10818-3 0  9992,2 53609  53.2168 110.0265 0001370  89.4324 270.6825 15.08842720 54057,6917.872,95.437,540.685,538.789,0.0
53609.0,STARLINK-4660,PAYLOAD,2023-08-20 01:23:41,15.0883902,0.0001296,53.2168,105.5646,91.1061,269.0079,-2.1511e-05,-6.3e-06,0.0,0 STARLINK-4660,1 53609U 22104X   23232.05812250 -.00000630  00000-0 -21511-4 0  9992,2 53609  53.2168 105.5646 0001296  91.1061 269.0079 15.08839020 54203,6917.883,95.438,540.645,538.852,0.0
53609.0,STARLINK-4660,PAYLOAD,2023-08-21 01:14:28,15.0883891,0.0001307,53.2169,101.1044,95.3418,264.7723,0.00026003,3.853e-05,0.0,0 STARLINK-4660,1 53609U 22104X   23233.05171678  .00003853  00000-0  26003-3 0  9993,2 53609  53.2169 101.1044 0001307  95.3418 264.7723 15.08838910 54354,6917.884,95.438,540.653,538.845,0.0
53609.0,STARLINK-4660,PAYLOAD,2023-08-21 20:19:06,15.08836748,0.0001452,53.2164,97.5312,99.1351,260.9806,1.1595e-05,-1.03e-06,0.0,0 STARLINK-4660,1 53609U 22104X   23233.84660694 -.00000103  00000-0  11595-4 0  9998,2 53609  53.2164  97.5312 0001452  99.1351 260.9806 15.08836748 54474,6917.89,95.438,540.76,538.751,0.0
53609.0,STARLINK-4660,PAYLOAD,2023-08-23 00:56:03,15.08844602,0.0001321,53.2171,92.1833,83.4433,276.6709,1.2777e-05,-8.5e-07,0.0,0 STARLINK-4660,1 53609U 22104X   23235.03892367 -.00000085  00000-0  12777-4 0  9997,2 53609  53.2171  92.1833 0001321  83.4433 276.6709 15.08844602 54657,6917.866,95.437,540.645,538.817,0.0
53609.0,STARLINK-4660,PAYLOAD,2023-08-24 13:29:55,15.0883802,0.0001478,53.2177,85.3413,103.3927,256.723,4.3453e-05,4.04e-06,0.0,0 STARLINK-4660,1 53609U 22104X   23236.56245056  .00000404  00000-0  43453-4 0  9992,2 53609  53.2177  85.3413 0001478 103.3927 256.7230 15.08838020 55571,6917.886,95.438,540.774,538.729,0.0
53609.0,STARLINK-4660,PAYLOAD,2023-08-25 19:42:15,15.08842305,0.0001433,53.2176,79.6917,99.8268,260.2886,9.283e-05,1.19e-05,0.0,0 STARLINK-4660,1 53609U 22104X   23237.82100771  .00001190  00000-0  92830-4 0  9992,2 53609  53.2176  79.6917 0001433  99.8268 260.2886 15.08842305 55076,6917.873,95.437,540.73,538.747,0.0
53609.0,STARLINK-4660,PAYLOAD,2023-08-25 22:53:01,15.08843551,0.0001376,53.2174,79.0977,86.0326,274.0823,9.01e-05,1.146e-05,0.0,0 STARLINK-4660,1 53609U 22104X   23237.95348759  .00001146  00000-0  90100-4 0  9995,2 53609  53.2174  79.0977 0001376  86.0326 274.0823 15.08843551 55789,6917.87,95.437,540.686,538.783,0.0
53609.0,STARLINK-4660,PAYLOAD,2023-08-26 21:08:25,15.0884476,0.0001493,53.2179,74.935,79.735,280.381,9.3194e-05,1.196e-05,0.0,0 STARLINK-4660,1 53609U 22104X   23238.88084697  .00001196  00000-0  93194-4 0  9997,2 53609  53.2179  74.9350 0001493  79.7350 280.3810 15.08844760 55924,6917.866,95.437,540.764,538.698,0.0
53609.0,STARLINK-4660,PAYLOAD,2023-08-27 17:48:26,15.08839125,0.000139,53.2176,71.0676,91.435,268.6802,1.9078e-05,1.6e-07,0.0,0 STARLINK-4660,1 53609U 22104X   23239.74197122  .00000016  00000-0  19078-4 0  9990,2 53609  53.2176  71.0676 0001390  91.4350 268.6802 15.08839125 55364,6917.883,95.438,540.71,538.786,0.0
53609.0,STARLINK-4660,PAYLOAD,2023-08-27 20:59:12,15.08839839,0.0001389,53.2179,70.4727,91.1503,268.9648,1.9406e-05,2.1e-07,0.0,0 STARLINK-4660,1 53609U 22104X   23239.87445049  .00000021  00000-0  19406-4 0  9999,2 53609  53.2179  70.4727 0001389  91.1503 268.9648 15.08839839 56074,6917.881,95.438,540.707,538.785,0.0
53609.0,STARLINK-4660,PAYLOAD,2023-08-28 19:14:35,15.08845596,0.0001401,53.2182,66.3102,84.8937,275.2216,6.4213e-05,7.34e-06,0.0,0 STARLINK-4660,1 53609U 22104X   23240.80180495  .00000734  00000-0  64213-4 0  9992,2 53609  53.2182  66.3102 0001401  84.8937 275.2216 15.08845596 55522,6917.863,95.437,540.697,538.759,0.0
53609.0,STARLINK-4660,PAYLOAD,2023-08-29 17:30:00,15.08838892,0.0001287,53.2175,62.1474,98.0674,262.0465,3.4981e-05,2.69e-06,0.0,0 STARLINK-4660,1 53609U 22104X   23241.72917034  .00000269  00000-0  34981-4 0  9993,2 53609  53.2175  62.1474 0001287  98.0674 262.0465 15.08838892 55663,6917.884,95.438,540.639,538.858,0.0
53609.0,STARLINK-4660,PAYLOAD,2023-08-29 19:05:23,15.08838788,0.0001305,53.2178,61.851,79.5068,280.6071,2.2468e-05,7e-07,0.0,0 STARLINK-4660,1 53609U 22104X   23241.79541153  .00000070  00000-0  22468-4 0  9992,2 53609  53.2178  61.8510 0001305  79.5068 280.6071 15.08838788 56366,6917.884,95.438,540.652,538.846,0.0
53609.0,STARLINK-4660,PAYLOAD,2023-08-30 20:31:33,15.08840066,0.0001249,53.218,57.0934,79.7797,280.3336,2.1857e-05,6e-07,0.0,0 STARLINK-4660,1 53609U 22104X   23242.85525136  .00000060  00000-0  21857-4 0  9993,2 53609  53.2180  57.0934 0001249  79.7797 280.3336 15.08840066 56525,6917.88,95.438,540.609,538.881,0.0
53609.0,STARLINK-4660,PAYLOAD,2023-08-31 10:50:02,15.08830459,0.0001023,53.2178,54.4162,124.5976,235.5113,5.2444e-05,5.47e-06,0.0,0 STARLINK-4660,1 53609U 22104X   23243.45141776  .00000547  00000-0  52444-4 0  9990,2 53609  53.2178  54.4162 0001023 124.5976 235.5113 15.08830459 55927,6917.91,95.438,540.482,539.067,0.0
53609.0,STARLINK-4660,PAYLOAD,2023-09-01 12:16:19,15.08564662,0.0004069,53.2092,49.6617,92.3953,267.7505,0.001569,0.00024586,0.0,0 STARLINK-4660,1 53609U 22104X   23244.51133548  .00024586  00000-0  15690-2 0  9995,2 53609  53.2092  49.6617 0004069  92.3953 267.7505 15.08564662 56083,6918.722,95.455,543.402,537.772,0.0
53609.0,STARLINK-4660,PAYLOAD,2023-09-01 20:13:07,15.08724431,0.0003864,53.2115,48.1752,90.5577,269.5858,0.0025658,0.00040658,0.0,0 STARLINK-4660,1 53609U 22104X   23244.84244719  .00040658  00000-0  25658-2 0  9997,2 53609  53.2115  48.1752 0003864  90.5577 269.5858 15.08724431 56822,6918.234,95.445,542.772,537.425,0.0
53609.0,STARLINK-4660,PAYLOAD,2023-09-02 02:34:41,15.08824283,0.0001391,53.2163,46.9832,103.3964,256.7183,4.146e-05,3.72e-06,0.0,0 STARLINK-4660,1 53609U 22104X   23245.10742418  .00000372  00000-0  41460-4 0  9996,2 53609  53.2163  46.9832 0001391 103.3964 256.7183 15.08824283 56179,6917.928,95.439,540.756,538.831,0.0
53609.0,STARLINK-4660,PAYLOAD,2023-09-02 10:31:37,15.08829756,0.0001266,53.2179,45.4963,87.237,272.8767,1.0126e-05,-1.27e-06,0.0,0 STARLINK-4660,1 53609U 22104X   23245.43862455 -.00000127  00000-0  10126-4 0  9990,2 53609  53.2179  45.4963 0001266  87.2370 272.8767 15.08829756 56916,6917.912,95.438,540.653,538.901,0.0
53609.0,STARLINK-4660,PAYLOAD,2023-09-02 16:53:09,15.08835698,0.0001186,53.2175,44.3075,85.6764,274.4363,6.4519e-05,7.39e-06,0.0,0 STARLINK-4660,1 53609U 22104X   23245.70357980  .00000739  00000-0  64519-4 0  9995,2 53609  53.2175  44.3075 0001186  85.6764 274.4363 15.08835698 56264,6917.894,95.438,540.579,538.938,0.0
53609.0,STARLINK-4660,PAYLOAD,2023-09-02 20:03:54,15.08845191,0.0001311,53.2177,43.7123,85.7351,274.3791,0.00014483,2.018e-05,0.0,0 STARLINK-4660,1 53609U 22104X   23245.83605275  .00002018  00000-0  14483-3 0  9998,2 53609  53.2177  43.7123 0001311  85.7351 274.3791 15.08845191 56977,6917.865,95.437,540.636,538.823,0.0
53609.0,STARLINK-4660,PAYLOAD,2023-09-03 10:22:23,15.08845657,0.0001392,53.2176,41.0364,84.8743,275.2408,9.3874e-05,1.207e-05,0.0,0 STARLINK-4660,1 53609U 22104X   23246.43221477  .00001207  00000-0  93874-4 0  9994,2 53609  53.2176  41.0364 0001392  84.8743 275.2408 15.08845657 57061,6917.863,95.437,540.691,538.765,0.0
53609.0,STARLINK-4660,PAYLOAD,2023-09-04 10:13:10,15.08844441,0.0001135,53.2171,36.5761,80.7806,279.3315,0.00024331,3.587e-05,0.0,0 STARLINK-4660,1 53609U 22104X   23247.42581368  .00003587  00000-0  24331-3 0  9996,2 53609  53.2171  36.5761 0001135  80.7806 279.3315 15.08844441 56528,6917.867,95.437,540.517,538.947,0.0
53609.0,STARLINK-4660,PAYLOAD,2023-09-04 16:34:43,15.08836376,0.0001476,53.2168,35.3871,87.533,272.5831,6.7168e-05,7.81e-06,0.0,0 STARLINK-4660,1 53609U 22104X   23247.69077975  .00000781  00000-0  67168-4 0  9998,2 53609  53.2168  35.3871 0001476  87.5330 272.5831 15.08836376 56568,6917.891,95.438,540.778,538.735,0.0
53609.0,STARLINK-4660,PAYLOAD,2023-09-04 21:20:52,15.08836649,0.0001489,53.2172,34.4941,89.2865,270.8298,-1.6203e-05,-5.46e-06,0.0,0 STARLINK-4660,1 53609U 22104X   23247.88950004 -.00000546  00000-0 -16203-4 0  9997,2 53609  53.2172  34.4941 0001489  89.2865 270.8298 15.08836649 57288,6917.891,95.438,540.786,538.726,0.0
53609.0,STARLINK-4660,PAYLOAD,2023-09-05 16:25:30,15.08838385,0.0001099,53.2186,30.9276,80.2792,279.8324,5.2666e-05,5.5e-06,0.0,0 STARLINK-4660,1 53609U 22104X   23248.68438095  .00000550  00000-0  52666-4 0  9993,2 53609  53.2186  30.9276 0001099  80.2792 279.8324 15.08838385 57404,6917.885,95.438,540.511,538.99,0.0
